start=new Date('2023-02-03T00:00:00.000Z').valueOf();
sats=[{"LAUNCH_DATE":"2022-09-05","RA_OF_ASC_NODE":"293.5072","TLE_LINE2":"2 53715  53.2180 293.5072 0001389  88.0255 272.0896 15.08832124 23596","SEMIMAJOR_AXIS":"6917.904","EPOCH":"2023-02-02T03:36:59.486400","ARG_OF_PERICENTER":"88.0255","OBJECT_ID":"2022-107R","MEAN_MOTION":"15.08832124","APOAPSIS":"540.730","EPHEMERIS_TYPE":"0","NORAD_CAT_ID":"53715","BSTAR":"-0.00009921600000","GP_ID":"224244119","PERIOD":"95.438","ELEMENT_SET_NO":"999","COUNTRY_CODE":"US","MEAN_MOTION_DDOT":"0.0000000000000","REF_FRAME":"TEME","SITE":"AFETR","FILE":"3768366","INCLINATION":"53.2180","CENTER_NAME":"EARTH","TIME_SYSTEM":"UTC","RCS_SIZE":"LARGE","PERIAPSIS":"538.809","REV_AT_EPOCH":"2359","ECCENTRICITY":"0.00013890","MEAN_ELEMENT_THEORY":"SGP4","OBJECT_TYPE":"PAYLOAD","MEAN_MOTION_DOT":"-0.00001866","TLE_LINE1":"1 53715U 22107R   23033.15068850 -.00001866  00000-0 -99216-4 0  9991","MEAN_ANOMALY":"272.0896","DECAY_DATE":null,"OBJECT_NAME":"STARLINK-4686","CLASSIFICATION_TYPE":"U"},{"REF_FRAME":"TEME","MEAN_MOTION_DDOT":"0.0000000000000","COUNTRY_CODE":"US","FILE":"3768366","SITE":"AFETR","INCLINATION":"53.2172","RCS_SIZE":"LARGE","TIME_SYSTEM":"UTC","CENTER_NAME":"EARTH","ECCENTRICITY":"0.00013170","REV_AT_EPOCH":"2358","PERIAPSIS":"538.839","MEAN_ELEMENT_THEORY":"SGP4","MEAN_MOTION_DOT":"0.00000223","OBJECT_TYPE":"PAYLOAD","CLASSIFICATION_TYPE":"U","OBJECT_NAME":"STARLINK-4699","TLE_LINE1":"1 53716U 22107S   23033.14700642  .00000223  00000-0  32093-4 0  9997","MEAN_ANOMALY":"262.6760","DECAY_DATE":null,"LAUNCH_DATE":"2022-09-05","SEMIMAJOR_AXIS":"6917.885","TLE_LINE2":"2 53716  53.2172 293.4880 0001317  97.4382 262.6760 15.08838545 23587","RA_OF_ASC_NODE":"293.4880","ARG_OF_PERICENTER":"97.4382","EPOCH":"2023-02-02T03:31:41.354688","OBJECT_ID":"2022-107S","NORAD_CAT_ID":"53716","EPHEMERIS_TYPE":"0","APOAPSIS":"540.661","MEAN_MOTION":"15.08838545","GP_ID":"224244840","BSTAR":"0.00003209300000","ELEMENT_SET_NO":"999","PERIOD":"95.438"},{"CLASSIFICATION_TYPE":"U","OBJECT_NAME":"STARLINK-4695","DECAY_DATE":null,"TLE_LINE1":"1 53718U 22107U   23033.14331659  .00000491  00000-0  48942-4 0  9994","MEAN_ANOMALY":"278.6161","MEAN_MOTION_DOT":"0.00000491","OBJECT_TYPE":"PAYLOAD","MEAN_ELEMENT_THEORY":"SGP4","REV_AT_EPOCH":"2358","ECCENTRICITY":"0.00012620","PERIAPSIS":"538.867","RCS_SIZE":"LARGE","CENTER_NAME":"EARTH","TIME_SYSTEM":"UTC","INCLINATION":"53.2191","FILE":"3768366","SITE":"AFETR","REF_FRAME":"TEME","MEAN_MOTION_DDOT":"0.0000000000000","COUNTRY_CODE":"US","PERIOD":"95.437","ELEMENT_SET_NO":"999","GP_ID":"224243634","BSTAR":"0.00004894200000","NORAD_CAT_ID":"53718","APOAPSIS":"540.613","EPHEMERIS_TYPE":"0","MEAN_MOTION":"15.08841839","OBJECT_ID":"2022-107U","ARG_OF_PERICENTER":"81.4975","EPOCH":"2023-02-02T03:26:22.553376","TLE_LINE2":"2 53718  53.2191 293.4618 0001262  81.4975 278.6161 15.08841839 23581","SEMIMAJOR_AXIS":"6917.875","RA_OF_ASC_NODE":"293.4618","LAUNCH_DATE":"2022-09-05"},{"LAUNCH_DATE":"2022-09-05","RA_OF_ASC_NODE":"260.3255","TLE_LINE2":"2 53719  53.2125 260.3255 0001807  93.2679 266.8521 15.11171622 23664","SEMIMAJOR_AXIS":"6910.763","EPOCH":"2023-02-03T00:03:34.351488","ARG_OF_PERICENTER":"93.2679","OBJECT_ID":"2022-107V","EPHEMERIS_TYPE":"0","APOAPSIS":"533.876","MEAN_MOTION":"15.11171622","NORAD_CAT_ID":"53719","BSTAR":"0.00030415000000","GP_ID":"224260611","PERIOD":"95.290","ELEMENT_SET_NO":"999","MEAN_MOTION_DDOT":"0.0000000000000","REF_FRAME":"TEME","COUNTRY_CODE":"US","SITE":"AFETR","FILE":"3769066","INCLINATION":"53.2125","TIME_SYSTEM":"UTC","CENTER_NAME":"EARTH","RCS_SIZE":"LARGE","REV_AT_EPOCH":"2366","ECCENTRICITY":"0.00018070","PERIAPSIS":"531.379","MEAN_ELEMENT_THEORY":"SGP4","MEAN_MOTION_DOT":"0.00004871","OBJECT_TYPE":"PAYLOAD","OBJECT_NAME":"STARLINK-4644","TLE_LINE1":"1 53719U 22107V   23034.00248092  .00004871  00000-0  30415-3 0  9990","DECAY_DATE":null,"MEAN_ANOMALY":"266.8521","CLASSIFICATION_TYPE":"U"},{"MEAN_ELEMENT_THEORY":"SGP4","ECCENTRICITY":"0.00013040","REV_AT_EPOCH":"2322","PERIAPSIS":"538.842","OBJECT_NAME":"STARLINK-4642","TLE_LINE1":"1 53720U 22107W   23033.75053718 -.00000920  00000-0 -39691-4 0  9991","MEAN_ANOMALY":"271.9931","DECAY_DATE":null,"CLASSIFICATION_TYPE":"U","MEAN_MOTION_DOT":"-0.00000920","OBJECT_TYPE":"PAYLOAD","SITE":"AFETR","FILE":"3769066","REF_FRAME":"TEME","MEAN_MOTION_DDOT":"0.0000000000000","COUNTRY_CODE":"US","TIME_SYSTEM":"UTC","CENTER_NAME":"EARTH","RCS_SIZE":"LARGE","INCLINATION":"53.2190","BSTAR":"-0.00003969100000","GP_ID":"224260609","APOAPSIS":"540.647","EPHEMERIS_TYPE":"0","MEAN_MOTION":"15.08840275","NORAD_CAT_ID":"53720","ELEMENT_SET_NO":"999","PERIOD":"95.438","RA_OF_ASC_NODE":"290.8549","TLE_LINE2":"2 53720  53.2190 290.8549 0001304  88.1211 271.9931 15.08840275 23226","SEMIMAJOR_AXIS":"6917.880","LAUNCH_DATE":"2022-09-05","OBJECT_ID":"2022-107W","EPOCH":"2023-02-02T18:00:46.412352","ARG_OF_PERICENTER":"88.1211"},{"SITE":"AFETR","FILE":"3768366","COUNTRY_CODE":"US","REF_FRAME":"TEME","MEAN_MOTION_DDOT":"0.0000000000000","CENTER_NAME":"EARTH","TIME_SYSTEM":"UTC","RCS_SIZE":"LARGE","INCLINATION":"53.2178","MEAN_ELEMENT_THEORY":"SGP4","PERIAPSIS":"538.977","ECCENTRICITY":"0.00010850","REV_AT_EPOCH":"2359","TLE_LINE1":"1 53721U 22107X   23033.16174110  .00004481  00000-0  29937-3 0  9992","MEAN_ANOMALY":"275.5937","DECAY_DATE":null,"OBJECT_NAME":"STARLINK-4707","CLASSIFICATION_TYPE":"U","OBJECT_TYPE":"PAYLOAD","MEAN_MOTION_DOT":"0.00004481","RA_OF_ASC_NODE":"293.5803","TLE_LINE2":"2 53721  53.2178 293.5803 0001085  84.5179 275.5937 15.08845885 23593","SEMIMAJOR_AXIS":"6917.862","LAUNCH_DATE":"2022-09-05","OBJECT_ID":"2022-107X","EPOCH":"2023-02-02T03:52:54.431040","ARG_OF_PERICENTER":"84.5179","BSTAR":"0.00029937000000","GP_ID":"224244358","MEAN_MOTION":"15.08845885","APOAPSIS":"540.478","EPHEMERIS_TYPE":"0","NORAD_CAT_ID":"53721","PERIOD":"95.437","ELEMENT_SET_NO":"999"},{"CLASSIFICATION_TYPE":"U","TLE_LINE1":"1 53722U 22107Y   23033.08908904 -.00000544  00000-0 -16125-4 0  9994","MEAN_ANOMALY":"276.6642","DECAY_DATE":null,"OBJECT_NAME":"STARLINK-4700","OBJECT_TYPE":"PAYLOAD","MEAN_MOTION_DOT":"-0.00000544","MEAN_ELEMENT_THEORY":"SGP4","PERIAPSIS":"538.992","ECCENTRICITY":"0.00010930","REV_AT_EPOCH":"2357","RCS_SIZE":"LARGE","TIME_SYSTEM":"UTC","CENTER_NAME":"EARTH","INCLINATION":"53.2171","FILE":"3768366","SITE":"AFETR","COUNTRY_CODE":"US","MEAN_MOTION_DDOT":"0.0000000000000","REF_FRAME":"TEME","ELEMENT_SET_NO":"999","PERIOD":"95.438","GP_ID":"224243135","BSTAR":"-0.00001612500000","NORAD_CAT_ID":"53722","APOAPSIS":"540.504","EPHEMERIS_TYPE":"0","MEAN_MOTION":"15.08839134","OBJECT_ID":"2022-107Y","ARG_OF_PERICENTER":"83.4474","EPOCH":"2023-02-02T02:08:17.293056","TLE_LINE2":"2 53722  53.2171 293.8380 0001093  83.4474 276.6642 15.08839134 23578","SEMIMAJOR_AXIS":"6917.883","RA_OF_ASC_NODE":"293.8380","LAUNCH_DATE":"2022-09-05"},{"INCLINATION":"53.2189","RCS_SIZE":"LARGE","CENTER_NAME":"EARTH","TIME_SYSTEM":"UTC","MEAN_MOTION_DDOT":"0.0000000000000","REF_FRAME":"TEME","COUNTRY_CODE":"US","FILE":"3769066","SITE":"AFETR","MEAN_MOTION_DOT":"-0.00000238","OBJECT_TYPE":"PAYLOAD","CLASSIFICATION_TYPE":"U","OBJECT_NAME":"STARLINK-4705","TLE_LINE1":"1 53723U 22107Z   23033.96398690 -.00000238  00000-0  31485-5 0  9993","DECAY_DATE":null,"MEAN_ANOMALY":"276.6384","REV_AT_EPOCH":"2325","ECCENTRICITY":"0.00011000","PERIAPSIS":"538.946","MEAN_ELEMENT_THEORY":"SGP4","ARG_OF_PERICENTER":"83.4734","EPOCH":"2023-02-02T23:08:08.468160","OBJECT_ID":"2022-107Z","LAUNCH_DATE":"2022-09-05","TLE_LINE2":"2 53723  53.2189 290.0533 0001100  83.4734 276.6384 15.08852504 23259","SEMIMAJOR_AXIS":"6917.842","RA_OF_ASC_NODE":"290.0533","ELEMENT_SET_NO":"999","PERIOD":"95.437","NORAD_CAT_ID":"53723","EPHEMERIS_TYPE":"0","APOAPSIS":"540.468","MEAN_MOTION":"15.08852504","GP_ID":"224260603","BSTAR":"0.00000314850000"},{"PERIOD":"95.438","ELEMENT_SET_NO":"999","BSTAR":"0.00008000800000","GP_ID":"224260203","APOAPSIS":"540.455","EPHEMERIS_TYPE":"0","MEAN_MOTION":"15.08836572","NORAD_CAT_ID":"53724","OBJECT_ID":"2022-107AA","EPOCH":"2023-02-02T18:06:04.800672","ARG_OF_PERICENTER":"90.3327","RA_OF_ASC_NODE":"290.8802","TLE_LINE2":"2 53724  53.2180 290.8802 0001011  90.3327 269.7781 15.08836572 23222","SEMIMAJOR_AXIS":"6917.891","LAUNCH_DATE":"2022-09-05","TLE_LINE1":"1 53724U 22107AA  23033.75422223  .00000986  00000-0  80008-4 0  9994","MEAN_ANOMALY":"269.7781","DECAY_DATE":null,"OBJECT_NAME":"STARLINK-4663","CLASSIFICATION_TYPE":"U","OBJECT_TYPE":"PAYLOAD","MEAN_MOTION_DOT":"0.00000986","MEAN_ELEMENT_THEORY":"SGP4","PERIAPSIS":"539.056","REV_AT_EPOCH":"2322","ECCENTRICITY":"0.00010110","TIME_SYSTEM":"UTC","CENTER_NAME":"EARTH","RCS_SIZE":"LARGE","INCLINATION":"53.2180","SITE":"AFETR","FILE":"3769066","COUNTRY_CODE":"US","REF_FRAME":"TEME","MEAN_MOTION_DDOT":"0.0000000000000"},{"RCS_SIZE":"LARGE","CENTER_NAME":"EARTH","TIME_SYSTEM":"UTC","INCLINATION":"53.2200","FILE":"3769066","SITE":"AFETR","COUNTRY_CODE":"US","MEAN_MOTION_DDOT":"0.0000000000000","REF_FRAME":"TEME","CLASSIFICATION_TYPE":"U","TLE_LINE1":"1 53726U 22107AC  23033.96030334  .00000231  00000-0  32572-4 0  9993","MEAN_ANOMALY":"278.3602","DECAY_DATE":null,"OBJECT_NAME":"STARLINK-4697","OBJECT_TYPE":"PAYLOAD","MEAN_MOTION_DOT":"0.00000231","MEAN_ELEMENT_THEORY":"SGP4","PERIAPSIS":"538.594","REV_AT_EPOCH":"2325","ECCENTRICITY":"0.00016080","OBJECT_ID":"2022-107AC","ARG_OF_PERICENTER":"81.7572","EPOCH":"2023-02-02T23:02:50.208576","TLE_LINE2":"2 53726  53.2200 290.0341 0001608  81.7572 278.3602 15.08852808 23256","SEMIMAJOR_AXIS":"6917.841","RA_OF_ASC_NODE":"290.0341","LAUNCH_DATE":"2022-09-05","ELEMENT_SET_NO":"999","PERIOD":"95.437","GP_ID":"224260201","BSTAR":"0.00003257200000","NORAD_CAT_ID":"53726","APOAPSIS":"540.819","MEAN_MOTION":"15.08852808","EPHEMERIS_TYPE":"0"}];
